{
    "links": {
        "self": "http://www.neowsapp.com/rest/v1/neo/3764705?api_key=iIulBulltgU6a56xZRHN4H3l9WmuAYTsLGpBGhQ2"
    },
    "id": "3764705",
    "neo_reference_id": "3764705",
    "name": "(2016 WW2)",
    "designation": "2016 WW2",
    "nasa_jpl_url": "http://ssd.jpl.nasa.gov/sbdb.cgi?sstr=3764705",
    "absolute_magnitude_h": 29.0,
    "estimated_diameter": {
        "kilometers": {
            "estimated_diameter_min": 0.0042126461,
            "estimated_diameter_max": 0.0094197631
        },
        "meters": {
            "estimated_diameter_min": 4.2126461056,
            "estimated_diameter_max": 9.4197630572
        },
        "miles": {
            "estimated_diameter_min": 0.0026176161,
            "estimated_diameter_max": 0.0058531676
        },
        "feet": {
            "estimated_diameter_min": 13.821017849,
            "estimated_diameter_max": 30.9047354285
        }
    },
    "is_potentially_hazardous_asteroid": false,
    "close_approach_data": [
        {
            "close_approach_date": "2016-11-25",
            "close_approach_date_full": "2016-Nov-25 02:46",
            "epoch_date_close_approach": 1480041960000,
            "relative_velocity": {
                "kilometers_per_second": "9.8673387599",
                "kilometers_per_hour": "35522.4195357842",
                "miles_per_hour": "22072.2500721099"
            },
            "miss_distance": {
                "astronomical": "0.0008938753",
                "lunar": "0.3477174917",
                "kilometers": "133721.840925611",
                "miles": "83090.8989749918"
            },
            "orbiting_body": "Earth"
        },
        {
            "close_approach_date": "2016-11-25",
            "close_approach_date_full": "2016-Nov-25 14:00",
            "epoch_date_close_approach": 1480082400000,
            "relative_velocity": {
                "kilometers_per_second": "9.7382606443",
                "kilometers_per_hour": "35057.738319554",
                "miles_per_hour": "21783.5152352806"
            },
            "miss_distance": {
                "astronomical": "0.0009978202",
                "lunar": "0.3881520578",
                "kilometers": "149271.776562974",
                "miles": "92753.1809340812"
            },
            "orbiting_body": "Moon"
        }
    ],
    "orbital_data": {
        "orbit_id": "4",
        "orbit_determination_date": "2017-04-06 08:22:01",
        "first_observation_date": "2016-11-24",
        "last_observation_date": "2016-11-24",
        "data_arc_in_days": null,
        "observations_used": 38,
        "orbit_uncertainty": "7",
        "minimum_orbit_intersection": ".00120682",
        "jupiter_tisserand_invariant": "3.321",
        "epoch_osculation": "2459000.5",
        "eccentricity": ".5958098321921046",
        "semi_major_axis": "2.312662029993652",
        "inclination": "1.317095070725968",
        "ascending_node_longitude": "64.42167218153494",
        "orbital_period": "1284.596344904757",
        "perihelion_distance": ".9347552539860825",
        "perihelion_argument": "27.69335380029576",
        "aphelion_distance": "3.690568806001223",
        "perihelion_time": "2459025.871881582999",
        "mean_anomaly": "352.8896906751226",
        "mean_motion": ".2802436745425205",
        "equinox": "J2000",
        "orbit_class": {
            "orbit_class_type": "APO",
            "orbit_class_description": "Near-Earth asteroid orbits which cross the Earth’s orbit similar to that of 1862 Apollo",
            "orbit_class_range": "a (semi-major axis) > 1.0 AU; q (perihelion) < 1.017 AU"
        }
    },
    "is_sentry_object": false
}